GSAT0101 (PRN E11)      
1 37846U 11060A   21337.33161670 -.00000073  00000+0  00000+0 0  9998
2 37846  56.9175  26.6755 0001852 311.8203  48.2311  1.70474893 62873
GSAT0102 (PRN E12)      
1 37847U 11060B   21339.01485176 -.00000078  00000+0  00000+0 0  9991
2 37847  56.9188  26.6291 0003889 296.8837  62.6425  1.70475162 62900
GSAT0103 (PRN E19)      
1 38857U 12055A   21339.71845267  .00000067  00000+0  00000+0 0  9993
2 38857  55.0858 147.0267 0001664 224.7187 135.2574  1.70473618 56947
GSAT0104 (PRN E20)      
1 38858U 12055B   21339.68888158  .00000067  00000+0  00000+0 0  9996
2 38858  55.0860 147.0290 0001661 128.7866 231.2180  1.70473907 56807
GSAT0201 (PRN E18)      
1 40128U 14050A   21337.55240767 -.00000084  00000+0  00000+0 0  9998
2 40128  50.3978 340.0876 1635519 117.2185 260.4266  1.85519257 47585
GSAT0202 (PRN E14)      
1 40129U 14050B   21338.35313438 -.00000086  00000+0  00000+0 0  9996
2 40129  50.4257 339.1104 1632554 118.0547 259.4522  1.85519913 49761
GSAT0203 (PRN E26)      
1 40544U 15017A   21337.69986327 -.00000074  00000+0  00000+0 0  9997
2 40544  56.7125  26.7254 0005007 247.9716 112.0421  1.70476007 40961
GSAT0204 (PRN E22)      
1 40545U 15017B   21335.60595386 -.00000070  00000+0  00000+0 0  9994
2 40545  56.7173  26.7945 0004754 235.2733 124.7462  1.70475569  3976
GSAT0205 (PRN E24)      
1 40889U 15045A   21337.13303372 -.00000018  00000+0  00000+0 0  9990
2 40889  55.7569 267.3866 0005538   1.4933 358.5150  1.70474506 38762
GSAT0206 (PRN E30)      
1 40890U 15045B   21338.52607764 -.00000016  00000+0  00000+0 0  9996
2 40890  55.7550 267.3442 0004087 348.8761  11.1294  1.70472751 38816
GSAT0209 (PRN E09)      
1 41174U 15079A   21338.70182254  .00000075  00000+0  00000+0 0  9995
2 41174  55.1014 146.7567 0002076 344.9067  15.0836  1.70473238 36556
GSAT0208 (PRN E08)      
1 41175U 15079B   21338.92147813  .00000073  00000+0  00000+0 0  9990
2 41175  55.1009 146.7495 0001419 359.5729   0.4216  1.70473189 36979
GSAT0211 (PRN E02)      
1 41549U 16030A   21339.04106922 -.00000015  00000+0  00000+0 0  9990
2 41549  55.8996 267.2425 0005082 327.8846  32.1022  1.70474241 34454
GSAT0210 (PRN E01)      
1 41550U 16030B   21339.33379025 -.00000015  00000+0  00000+0 0  9990
2 41550  55.8988 267.2359 0004149 304.4615  55.5188  1.70474230 34451
GSAT0207 (PRN E07)      
1 41859U 16069A   21339.58089306  .00000067  00000+0  00000+0 0  9997
2 41859  54.7612 146.9618 0001612 312.7327  47.2441  1.70473144 31191
GSAT0212 (PRN E03)      
1 41860U 16069B   21338.84774392  .00000073  00000+0  00000+0 0  9990
2 41860  54.7585 146.9801 0001775  24.0942 335.9099  1.70473167 31430
GSAT0213 (PRN E04)      
1 41861U 16069C   21338.04008239  .00000081  00000+0  00000+0 0  9992
2 41861  54.7608 147.0072 0001345 245.7448 114.2442  1.70473266 31288
GSAT0214 (PRN E05)      
1 41862U 16069D   21338.77377501  .00000074  00000+0  00000+0 0  9996
2 41862  54.7595 146.9816 0000509 227.3927 132.5995  1.70473243 31424
GSAT0215 (PRN E21)      
1 43055U 17079A   21339.26425221 -.00000015  00000+0  00000+0 0  9998
2 43055  55.8746 267.0718 0003450 303.8122  56.1745  1.70473457 24772
GSAT0216 (PRN E25)      
1 43056U 17079B   21337.79684690 -.00000016  00000+0  00000+0 0  9993
2 43056  55.8762 267.1119 0005136 295.5429  64.4146  1.70473574 24763
GSAT0217 (PRN E27)      
1 43057U 17079C   21338.60362525 -.00000015  00000+0  00000+0 0  9994
2 43057  55.8734 267.0895 0004973 307.7142  52.2562  1.70473554 24764
GSAT0218 (PRN E31)      
1 43058U 17079D   21337.06386506 -.00000018  00000+0  00000+0 0  9992
2 43058  55.8749 267.1294 0005476 290.5078  69.4402  1.70473550 24760
GSAT0221 (PRN E15)      
1 43564U 18060A   21338.13539579 -.00000075  00000+0  00000+0 0  9997
2 43564  57.0959  26.4792 0005253 263.6161  96.3917  1.70475937 20931
GSAT0222 (PRN E33)      
1 43565U 18060B   21338.94181418 -.00000077  00000+0  00000+0 0  9994
2 43565  57.0984  26.4573 0004797 269.7130  90.2990  1.70475948 20994
GSAT0219 (PRN E36)      
1 43566U 18060C   21339.74897680 -.00000080  00000+0  00000+0 0  9993
2 43566  57.0994  26.4373 0004481 269.5572  90.4570  1.70475930 20988
GSAT0220 (PRN E13)      
1 43567U 18060D   21339.96895302 -.00000081  00000+0  00000+0 0  9998
2 43567  57.0990  26.4313 0004635 265.3780  94.6342  1.70475629 20961
